[Satellite]
VERSION=1.1
NAME=SL-16 R/B
NICKNAME=SL-16 R/B
TLE1=1 25861U 99039B   17186.03682390 -.00000009  00000-0  61850-5 0  9991
TLE2=2 25861  98.1061 157.4692 0016356  28.7936  19.9000 14.78416438968300
